[
    {
        "Altitude(m)": 566947.9994716364,
        "Argument of Periapsis(deg)": 0.033114955553567506,
        "Eccentricity": 0.0,
        "Inclination(deg)": 53.0,
        "Latitude(deg)": -41.03656383057127,
        "Longitude(deg)": -49.703873731383425,
        "Mean Anomaly(deg)": -54.99653566211207,
        "RAAN(deg)": 94.9507168426401,
        "Satellite Name": "Starlink Shell 1 433",
        "Satellite Number": 433,
        "Semi-Major Axis(m)": 6931778.249405717,
        "Time(s)": 950
    },
    {
        "Altitude(m)": 566790.4330609686,
        "Argument of Periapsis(deg)": 0.03346353403307874,
        "Eccentricity": 0.0,
        "Inclination(deg)": 53.0,
        "Latitude(deg)": -40.65535681031695,
        "Longitude(deg)": -49.09070020453802,
        "Mean Anomaly(deg)": -54.369704458555354,
        "RAAN(deg)": 94.95019807256263,
        "Satellite Name": "Starlink Shell 1 433",
        "Satellite Number": 433,
        "Semi-Major Axis(m)": 6931778.249405717,
        "Time(s)": 960
    },
    {
        "Altitude(m)": 566631.3816942672,
        "Argument of Periapsis(deg)": 0.03381211251258998,
        "Eccentricity": 0.0,
        "Inclination(deg)": 53.0,
        "Latitude(deg)": -40.27044882207193,
        "Longitude(deg)": -48.48494862902423,
        "Mean Anomaly(deg)": -53.74287325499865,
        "RAAN(deg)": 94.94967930248514,
        "Satellite Name": "Starlink Shell 1 433",
        "Satellite Number": 433,
        "Semi-Major Axis(m)": 6931778.249405717,
        "Time(s)": 970
    },
    {
        "Altitude(m)": 566470.9073617827,
        "Argument of Periapsis(deg)": 0.034160690992101214,
        "Eccentricity": 0.0,
        "Inclination(deg)": 53.0,
        "Latitude(deg)": -39.88192923524838,
        "Longitude(deg)": -47.88650448426824,
        "Mean Anomaly(deg)": -53.11604205144195,
        "RAAN(deg)": 94.94916053240767,
        "Satellite Name": "Starlink Shell 1 433",
        "Satellite Number": 433,
        "Semi-Major Axis(m)": 6931778.249405717,
        "Time(s)": 980
    },
    {
        "Altitude(m)": 566309.0725422868,
        "Argument of Periapsis(deg)": 0.034509269471612446,
        "Eccentricity": 0.0,
        "Inclination(deg)": 53.0,
        "Latitude(deg)": -39.48988560121525,
        "Longitude(deg)": -47.295251458230624,
        "Mean Anomaly(deg)": -52.48921084788523,
        "RAAN(deg)": 94.9486417623302,
        "Satellite Name": "Starlink Shell 1 433",
        "Satellite Number": 433,
        "Semi-Major Axis(m)": 6931778.249405717,
        "Time(s)": 990
    }
]